OBJECT_NAME,OBJECT_ID,EPOCH,MEAN_MOTION,ECCENTRICITY,INCLINATION,RA_OF_ASC_NODE,ARG_OF_PERICENTER,MEAN_ANOMALY,EPHEMERIS_TYPE,CLASSIFICATION_TYPE,NORAD_CAT_ID,ELEMENT_SET_NO,REV_AT_EPOCH,BSTAR,MEAN_MOTION_DOT,MEAN_MOTION_DDOT
STARLINK-37508,2026-117V,2026-06-15T12:03:53.356896,15.80927834,.00010947,53.1584,251.6386,68.1824,291.9315,0,U,69257,999,271,.95391605E-3,.192309E-2,0
STARLINK-37276,2026-117W,2026-06-15T14:00:01.999872,15.80877762,.000153,53.1579,250.9167,51.6264,201.2681,0,U,69258,999,391,.96886754E-4,.18468E-3,0
STARLINK-37518,2026-117X,2026-06-15T14:00:01.999872,15.80876949,.00012458,53.1578,250.9319,104.5211,141.3656,0,U,69259,999,392,.97319306E-4,.18553E-3,0
STARLINK-37478,2026-117Y,2026-06-15T14:00:01.999872,15.80866177,.00011731,53.1580,250.9344,81.9279,162.6892,0,U,69260,999,392,.15384803E-3,.29761E-3,0
STARLINK-37506,2026-117Z,2026-06-15T14:00:01.999872,15.80873131,.00010594,53.1575,250.9282,86.2693,161.1169,0,U,69261,999,392,.18591257E-3,.36148E-3,0
STARLINK-37503,2026-117AA,2026-06-15T14:00:01.999872,15.80871850,.00012003,53.1580,250.9248,83.7567,165.1028,0,U,69262,999,392,.19025888E-3,.37011E-3,0
STARLINK-37502,2026-117AB,2026-06-15T14:00:01.999872,15.80870668,.00014306,53.1580,250.9182,57.8812,193.9113,0,U,69263,999,392,.12017401E-3,.2308E-3,0
STARLINK-37486,2026-117AC,2026-06-15T14:00:01.999872,15.80877816,.00011229,53.1575,250.9038,84.9326,173.8060,0,U,69264,999,392,.23174662E-4,.3878E-4,0
STARLINK-37435,2026-117AD,2026-06-15T12:56:46.847904,15.80896416,.00010718,53.1579,251.1392,88.0980,272.0165,0,U,69265,999,272,.53960544E-3,.107249E-2,0
STARLINK-37464,2026-117AE,2026-06-15T12:52:02.483904,15.82021494,.00012037,53.1572,251.1166,34.7012,325.4090,0,U,69266,999,272,.61095129E-3,.128366E-2,0
KUIPER-00282,2026-118A,2026-06-15T12:41:21.295680,15.34572359,.0011631,51.8590,61.5528,176.6204,183.4862,0,U,69267,999,372,-.3085075E-3,-.10885E-3,0
KUIPER-00383,2026-118B,2026-06-15T14:10:54.884928,15.34547238,.00115226,51.8596,61.2215,179.5101,180.5897,0,U,69268,999,373,.51615806E-3,.1723E-3,0
KUIPER-00527,2026-118C,2026-06-15T14:04:52.557888,15.34966981,.0009853,51.8620,61.1972,169.2579,190.8618,0,U,69269,999,373,.24454414E-3,.8057E-4,0
KUIPER-00562,2026-118D,2026-06-15T13:22:45.382944,15.38604158,.00019834,51.8736,61.0065,104.4456,255.6751,0,U,69270,999,373,.83148671E-3,.31941E-3,0
KUIPER-00570,2026-118E,2026-06-15T14:07:50.016576,15.34778112,.00107565,51.8582,61.2064,182.5122,177.5812,0,U,69271,999,373,-.46197382E-3,-.16196E-3,0
KUIPER-00572,2026-118F,2026-06-15T13:48:02.612736,15.36974969,.00072078,51.8683,61.1257,165.1684,194.9516,0,U,69272,999,373,.37534612E-3,.13429E-3,0
KUIPER-00581,2026-118G,2026-06-15T13:53:09.145248,15.36605673,.00089116,51.8663,61.1480,169.0793,191.0388,0,U,69273,999,382,.3895747E-3,.1379E-3,0
KUIPER-00584,2026-118H,2026-06-15T14:10:55.493184,15.34651242,.00118826,51.8603,61.2230,181.5441,178.5510,0,U,69274,999,373,-.70070587E-3,-.24254E-3,0
KUIPER-00587,2026-118J,2026-06-15T13:52:17.420160,15.36656932,.00083357,51.8635,61.1415,171.9182,188.1940,0,U,69275,999,373,.59906301E-3,.21472E-3,0
KUIPER-00590,2026-118K,2026-06-15T13:34:15.204864,15.37880915,.0004183,51.8698,61.0643,152.9769,207.1437,0,U,69276,999,373,.36153054E-3,.13307E-3,0
KUIPER-00592,2026-118L,2026-06-15T13:30:53.742528,15.38056607,.00036894,51.8718,61.0482,128.4611,231.6708,0,U,69277,999,373,.3686545E-3,.13657E-3,0
KUIPER-00593,2026-118M,2026-06-15T13:31:51.851712,15.38016000,.00038639,51.8724,61.0517,148.5526,211.5692,0,U,69278,999,379,.36608237E-3,.1354E-3,0
KUIPER-00594,2026-118N,2026-06-15T13:21:07.564320,15.38630422,.00010485,51.8732,61.0016,81.5522,278.5584,0,U,69279,999,373,.57384146E-3,.2191E-3,0
KUIPER-00595,2026-118P,2026-06-15T13:24:07.329024,15.38540486,.00018655,51.8726,61.0171,126.5644,233.5515,0,U,69280,999,376,.85564927E-3,.32815E-3,0
KUIPER-00596,2026-118Q,2026-06-15T08:00:01.999872,15.34725840,.00124264,51.8548,62.4429,177.0744,206.6414,0,U,69281,999,300,-.45481887E-3,-.15937E-3,0
KUIPER-00597,2026-118R,2026-06-15T13:45:39.995712,15.36993581,.00070662,51.8659,61.1142,165.9012,194.2173,0,U,69282,999,373,.36985846E-3,.13234E-3,0
KUIPER-00599,2026-118S,2026-06-15T13:42:01.045152,15.37355745,.00061815,51.8702,61.0991,158.1800,201.9451,0,U,69283,999,373,.37148685E-3,.13452E-3,0
KUIPER-00600,2026-118T,2026-06-15T13:51:17.666784,15.36700910,.00088957,51.8650,61.1384,168.0543,192.0656,0,U,69284,999,373,.41467075E-3,.14752E-3,0
KUIPER-00601,2026-118U,2026-06-15T13:37:27.844032,15.37623882,.00047119,51.8715,61.0781,148.4146,211.7125,0,U,69285,999,373,.36425582E-3,.13297E-3,0
KUIPER-00602,2026-118V,2026-06-15T13:29:47.224896,15.38148647,.0002949,51.8712,61.0441,140.1571,219.9633,0,U,69286,999,373,.35551402E-3,.13195E-3,0
