STARLINK-37508          
1 69257U 26117V   26166.50270089  .00192309  00000+0  95392-3 0  9992
2 69257  53.1584 251.6386 0001094  68.1824 291.9315 15.80927834  2718
STARLINK-37276          
1 69258U 26117W   26166.58335648  .00018468  00000+0  96887-4 0  9998
2 69258  53.1579 250.9167 0001530  51.6264 201.2681 15.80877762  3919
STARLINK-37518          
1 69259U 26117X   26166.58335648  .00018553  00000+0  97319-4 0  9995
2 69259  53.1578 250.9319 0001245 104.5211 141.3656 15.80876949  3924
STARLINK-37478          
1 69260U 26117Y   26166.58335648  .00029761  00000+0  15385-3 0  9992
2 69260  53.1580 250.9344 0001173  81.9279 162.6892 15.80866177  3929
STARLINK-37506          
1 69261U 26117Z   26166.58335648  .00036148  00000+0  18591-3 0  9992
2 69261  53.1575 250.9282 0001059  86.2693 161.1169 15.80873131  3925
STARLINK-37503          
1 69262U 26117AA  26166.58335648  .00037011  00000+0  19026-3 0  9997
2 69262  53.1580 250.9248 0001200  83.7567 165.1028 15.80871850  3928
STARLINK-37502          
1 69263U 26117AB  26166.58335648  .00023080  00000+0  12017-3 0  9992
2 69263  53.1580 250.9182 0001430  57.8812 193.9113 15.80870668  3926
STARLINK-37486          
1 69264U 26117AC  26166.58335648  .00003878  00000+0  23175-4 0  9994
2 69264  53.1575 250.9038 0001122  84.9326 173.8060 15.80877816  3920
STARLINK-37435          
1 69265U 26117AD  26166.53943111  .00107249  00000+0  53961-3 0  9992
2 69265  53.1579 251.1392 0001071  88.0980 272.0165 15.80896416  2727
STARLINK-37464          
1 69266U 26117AE  26166.53613986  .00128366  00000+0  61095-3 0  9997
2 69266  53.1572 251.1166 0001203  34.7012 325.4090 15.82021494  2729
KUIPER-00282            
1 69267U 26118A   26166.52871870 -.00010885  00000+0 -30851-3 0  9990
2 69267  51.8590  61.5528 0011631 176.6204 183.4862 15.34572359  3723
KUIPER-00383            
1 69268U 26118B   26166.59091302  .00017230  00000+0  51616-3 0  9993
2 69268  51.8596  61.2215 0011522 179.5101 180.5897 15.34547238  3732
KUIPER-00527            
1 69269U 26118C   26166.58671942  .00008057  00000+0  24454-3 0  9994
2 69269  51.8620  61.1972 0009853 169.2579 190.8618 15.34966981  3734
KUIPER-00562            
1 69270U 26118D   26166.55746971  .00031941  00000+0  83149-3 0  9992
2 69270  51.8736  61.0065 0001983 104.4456 255.6751 15.38604158  3734
KUIPER-00570            
1 69271U 26118E   26166.58877334 -.00016196  00000+0 -46197-3 0  9993
2 69271  51.8582  61.2064 0010756 182.5122 177.5812 15.34778112  3738
KUIPER-00572            
1 69272U 26118F   26166.57503024  .00013429  00000+0  37535-3 0  9995
2 69272  51.8683  61.1257 0007207 165.1684 194.9516 15.36974969  3735
KUIPER-00581            
1 69273U 26118G   26166.57857807  .00013790  00000+0  38957-3 0  9997
2 69273  51.8663  61.1480 0008911 169.0793 191.0388 15.36605673  3827
KUIPER-00584            
1 69274U 26118H   26166.59092006 -.00024254  00000+0 -70071-3 0  9994
2 69274  51.8603  61.2230 0011882 181.5441 178.5510 15.34651242  3734
KUIPER-00587            
1 69275U 26118J   26166.57797940  .00021472  00000+0  59906-3 0  9993
2 69275  51.8635  61.1415 0008335 171.9182 188.1940 15.36656932  3735
KUIPER-00590            
1 69276U 26118K   26166.56545376  .00013307  00000+0  36153-3 0  9994
2 69276  51.8698  61.0643 0004183 152.9769 207.1437 15.37880915  3738
KUIPER-00592            
1 69277U 26118L   26166.56312202  .00013657  00000+0  36865-3 0  9993
2 69277  51.8718  61.0482 0003689 128.4611 231.6708 15.38056607  3734
KUIPER-00593            
1 69278U 26118M   26166.56379458  .00013540  00000+0  36608-3 0  9996
2 69278  51.8724  61.0517 0003863 148.5526 211.5692 15.38016000  3791
KUIPER-00594            
1 69279U 26118N   26166.55633755  .00021910  00000+0  57384-3 0  9993
2 69279  51.8732  61.0016 0001048  81.5522 278.5584 15.38630422  3737
KUIPER-00595            
1 69280U 26118P   26166.55841816  .00032815  00000+0  85565-3 0  9992
2 69280  51.8726  61.0171 0001865 126.5644 233.5515 15.38540486  3764
KUIPER-00596            
1 69281U 26118Q   26166.33335648 -.00015937  00000+0 -45482-3 0  9992
2 69281  51.8548  62.4429 0012426 177.0744 206.6414 15.34725840  3006
KUIPER-00597            
1 69282U 26118R   26166.57337958  .00013234  00000+0  36986-3 0  9990
2 69282  51.8659  61.1142 0007066 165.9012 194.2173 15.36993581  3731
KUIPER-00599            
1 69283U 26118S   26166.57084543  .00013452  00000+0  37149-3 0  9994
2 69283  51.8702  61.0991 0006181 158.1800 201.9451 15.37355745  3738
KUIPER-00600            
1 69284U 26118T   26166.57728781  .00014752  00000+0  41467-3 0  9996
2 69284  51.8650  61.1384 0008895 168.0543 192.0656 15.36700910  3730
KUIPER-00601            
1 69285U 26118U   26166.56768338  .00013297  00000+0  36426-3 0  9990
2 69285  51.8715  61.0781 0004711 148.4146 211.7125 15.37623882  3730
KUIPER-00602            
1 69286U 26118V   26166.56235214  .00013195  00000+0  35551-3 0  9998
2 69286  51.8712  61.0441 0002949 140.1571 219.9633 15.38148647  3739
